[{"OBJECT_NAME":"STARLINK-34587","OBJECT_ID":"2025-144M","EPOCH":"2026-03-09T14:02:44.943360","MEAN_MOTION":15.30212261,"ECCENTRICITY":6.93e-5,"INCLINATION":53.1587,"RA_OF_ASC_NODE":181.6896,"ARG_OF_PERICENTER":74.6294,"MEAN_ANOMALY":285.4784,"EPHEMERIS_TYPE":0,"CLASSIFICATION_TYPE":"U","NORAD_CAT_ID":64735,"ELEMENT_SET_NO":999,"REV_AT_EPOCH":3964,"BSTAR":-0.00014419,"MEAN_MOTION_DOT":-4.628e-5,"MEAN_MOTION_DDOT":0},{"OBJECT_NAME":"FENGYUN 1C DEB","OBJECT_ID":"1999-025CMP","EPOCH":"2026-03-08T08:37:00.789888","MEAN_MOTION":14.96815474,"ECCENTRICITY":0.01497126,"INCLINATION":98.9176,"RA_OF_ASC_NODE":115.7276,"ARG_OF_PERICENTER":148.4975,"MEAN_ANOMALY":212.5316,"EPHEMERIS_TYPE":0,"CLASSIFICATION_TYPE":"U","NORAD_CAT_ID":31938,"ELEMENT_SET_NO":999,"REV_AT_EPOCH":409,"BSTAR":0.00073670691,"MEAN_MOTION_DOT":0.00010536,"MEAN_MOTION_DDOT":0}]
